{
  "type": "FeatureCollection",
  "features": [
    {
      "type": "Feature",
      "properties": {
        "norad_id": 24876,
        "name": "GPS BIIR-2  (PRN 13)",
        "group": "gps-ops",
        "lat": -32.970143886100814,
        "lon": 79.53777309854719,
        "alt_km": 20219.40398465944,
        "timestamp": "2025-12-20T03:42:47.651584+00:00",
        "meta_object_name": "GPS BIIR-2  (PRN 13)",
        "meta_object_id": "1997-035A",
        "meta_epoch": "2025-12-19T05:08:27.852000",
        "meta_mean_motion": 2.00563748,
        "meta_eccentricity": 0.0096789,
        "meta_inclination": 55.8984,
        "meta_ra_of_asc_node": 105.6157,
        "meta_arg_of_pericenter": 56.9687,
        "meta_mean_anomaly": 303.9293,
        "meta_ephemeris_type": 0,
        "meta_classification_type": "U",
        "meta_norad_cat_id": 24876,
        "meta_element_set_no": 999,
        "meta_rev_at_epoch": 20834,
        "meta_bstar": 0,
        "meta_mean_motion_dot": -1.6e-07,
        "meta_mean_motion_ddot": 0,
        "tle_line1": "1 24876U 97035A   25353.21421125 -.00000016  00000+0  00000+0 0  9993",
        "tle_line2": "2 24876  55.8984 105.6157 0096789  56.9687 303.9293  2.00563748208344"
      },
      "geometry": {
        "type": "Point",
        "coordinates": [
          79.53777309854719,
          -32.970143886100814
        ]
      }
    },
    {
      "type": "Feature",
      "properties": {
        "norad_id": 26360,
        "name": "GPS BIIR-4  (PRN 20)",
        "group": "gps-ops",
        "lat": 40.26637271501458,
        "lon": 62.868127249675176,
        "alt_km": 20278.777776750776,
        "timestamp": "2025-12-20T03:42:47.651626+00:00",
        "meta_object_name": "GPS BIIR-4  (PRN 20)",
        "meta_object_id": "2000-025A",
        "meta_epoch": "2025-12-19T04:51:32.040288",
        "meta_mean_motion": 2.00567271,
        "meta_eccentricity": 0.00388899,
        "meta_inclination": 55.049,
        "meta_ra_of_asc_node": 26.5765,
        "meta_arg_of_pericenter": 242.5944,
        "meta_mean_anomaly": 201.8395,
        "meta_ephemeris_type": 0,
        "meta_classification_type": "U",
        "meta_norad_cat_id": 26360,
        "meta_element_set_no": 999,
        "meta_rev_at_epoch": 18766,
        "meta_bstar": 0,
        "meta_mean_motion_dot": -7e-07,
        "meta_mean_motion_ddot": 0,
        "tle_line1": "1 26360U 00025A   25353.20245417 -.00000070  00000+0  00000+0 0  9993",
        "tle_line2": "2 26360  55.0490  26.5765 0038889 242.5944 201.8395  2.00567271187665"
      },
      "geometry": {
        "type": "Point",
        "coordinates": [
          62.868127249675176,
          40.26637271501458
        ]
      }
    },
    {
      "type": "Feature",
      "properties": {
        "norad_id": 26407,
        "name": "GPS BIIR-5  (PRN 22)",
        "group": "gps-ops",
        "lat": -50.449042194650225,
        "lon": 100.66976675058808,
        "alt_km": 19977.400923624802,
        "timestamp": "2025-12-20T03:42:47.651643+00:00",
        "meta_object_name": "GPS BIIR-5  (PRN 22)",
        "meta_object_id": "2000-040A",
        "meta_epoch": "2025-12-19T13:13:50.096064",
        "meta_mean_motion": 2.00568112,
        "meta_eccentricity": 0.012564,
        "meta_inclination": 54.8893,
        "meta_ra_of_asc_node": 222.2981,
        "meta_arg_of_pericenter": 301.9249,
        "meta_mean_anomaly": 234.0274,
        "meta_ephemeris_type": 0,
        "meta_classification_type": "U",
        "meta_norad_cat_id": 26407,
        "meta_element_set_no": 999,
        "meta_rev_at_epoch": 18634,
        "meta_bstar": 0,
        "meta_mean_motion_dot": 7.5e-07,
        "meta_mean_motion_ddot": 0,
        "tle_line1": "1 26407U 00040A   25353.55127426  .00000075  00000+0  00000+0 0  9993",
        "tle_line2": "2 26407  54.8893 222.2981 0125640 301.9249 234.0274  2.00568112186349"
      },
      "geometry": {
        "type": "Point",
        "coordinates": [
          100.66976675058808,
          -50.449042194650225
        ]
      }
    },
    {
      "type": "Feature",
      "properties": {
        "norad_id": 27663,
        "name": "GPS BIIR-8  (PRN 16)",
        "group": "gps-ops",
        "lat": 21.67439293387995,
        "lon": -121.69359718343614,
        "alt_km": 19822.120873316446,
        "timestamp": "2025-12-20T03:42:47.651657+00:00",
        "meta_object_name": "GPS BIIR-8  (PRN 16)",
        "meta_object_id": "2003-005A",
        "meta_epoch": "2025-12-19T09:46:33.318048",
        "meta_mean_motion": 2.00570594,
        "meta_eccentricity": 0.014769,
        "meta_inclination": 54.9218,
        "meta_ra_of_asc_node": 222.113,
        "meta_arg_of_pericenter": 51.8916,
        "meta_mean_anomaly": 156.0709,
        "meta_ephemeris_type": 0,
        "meta_classification_type": "U",
        "meta_norad_cat_id": 27663,
        "meta_element_set_no": 999,
        "meta_rev_at_epoch": 16770,
        "meta_bstar": 0,
        "meta_mean_motion_dot": 7.6e-07,
        "meta_mean_motion_ddot": 0,
        "tle_line1": "1 27663U 03005A   25353.40733007  .00000076  00000+0  00000+0 0  9995",
        "tle_line2": "2 27663  54.9218 222.1130 0147690  51.8916 156.0709  2.00570594167704"
      },
      "geometry": {
        "type": "Point",
        "coordinates": [
          -121.69359718343614,
          21.67439293387995
        ]
      }
    },
    {
      "type": "Feature",
      "properties": {
        "norad_id": 28190,
        "name": "GPS BIIR-11 (PRN 19)",
        "group": "gps-ops",
        "lat": -5.330793909767233,
        "lon": 106.65035050906913,
        "alt_km": 19910.023080070303,
        "timestamp": "2025-12-20T03:42:47.651670+00:00",
        "meta_object_name": "GPS BIIR-11 (PRN 19)",
        "meta_object_id": "2004-009A",
        "meta_epoch": "2025-12-18T01:19:43.105728",
        "meta_mean_motion": 2.00560667,
        "meta_eccentricity": 0.01084092,
        "meta_inclination": 54.9808,
        "meta_ra_of_asc_node": 283.0048,
        "meta_arg_of_pericenter": 167.7197,
        "meta_mean_anomaly": 302.5438,
        "meta_ephemeris_type": 0,
        "meta_classification_type": "U",
        "meta_norad_cat_id": 28190,
        "meta_element_set_no": 999,
        "meta_rev_at_epoch": 15931,
        "meta_bstar": 0,
        "meta_mean_motion_dot": -5.1e-07,
        "meta_mean_motion_ddot": 0,
        "tle_line1": "1 28190U 04009A   25352.05536002 -.00000051  00000+0  00000+0 0  9996",
        "tle_line2": "2 28190  54.9808 283.0048 0108409 167.7197 302.5438  2.00560667159317"
      },
      "geometry": {
        "type": "Point",
        "coordinates": [
          106.65035050906913,
          -5.330793909767233
        ]
      }
    },
    {
      "type": "Feature",
      "properties": {
        "norad_id": 28474,
        "name": "GPS BIIR-13 (PRN 02)",
        "group": "gps-ops",
        "lat": -47.94767701821712,
        "lon": -157.57921933295185,
        "alt_km": 19987.04155026718,
        "timestamp": "2025-12-20T03:42:47.651682+00:00",
        "meta_object_name": "GPS BIIR-13 (PRN 02)",
        "meta_object_id": "2004-045A",
        "meta_epoch": "2025-12-19T06:56:25.037088",
        "meta_mean_motion": 2.00569921,
        "meta_eccentricity": 0.0170886,
        "meta_inclination": 55.2374,
        "meta_ra_of_asc_node": 332.1423,
        "meta_arg_of_pericenter": 309.5384,
        "meta_mean_anomaly": 31.8922,
        "meta_ephemeris_type": 0,
        "meta_classification_type": "U",
        "meta_norad_cat_id": 28474,
        "meta_element_set_no": 999,
        "meta_rev_at_epoch": 15481,
        "meta_bstar": 0,
        "meta_mean_motion_dot": -8.2e-07,
        "meta_mean_motion_ddot": 0,
        "tle_line1": "1 28474U 04045A   25353.28917867 -.00000082  00000+0  00000+0 0  9993",
        "tle_line2": "2 28474  55.2374 332.1423 0170886 309.5384  31.8922  2.00569921154811"
      },
      "geometry": {
        "type": "Point",
        "coordinates": [
          -157.57921933295185,
          -47.94767701821712
        ]
      }
    },
    {
      "type": "Feature",
      "properties": {
        "norad_id": 28874,
        "name": "GPS BIIRM-1 (PRN 17)",
        "group": "gps-ops",
        "lat": -19.52363632940406,
        "lon": 114.73725353830989,
        "alt_km": 20177.793389138944,
        "timestamp": "2025-12-20T03:42:47.651694+00:00",
        "meta_object_name": "GPS BIIRM-1 (PRN 17)",
        "meta_object_id": "2005-038A",
        "meta_epoch": "2025-12-19T02:51:41.554944",
        "meta_mean_motion": 2.00578076,
        "meta_eccentricity": 0.01314439,
        "meta_inclination": 55.0262,
        "meta_ra_of_asc_node": 280.4441,
        "meta_arg_of_pericenter": 293.6931,
        "meta_mean_anomaly": 244.1239,
        "meta_ephemeris_type": 0,
        "meta_classification_type": "U",
        "meta_norad_cat_id": 28874,
        "meta_element_set_no": 999,
        "meta_rev_at_epoch": 14822,
        "meta_bstar": 0,
        "meta_mean_motion_dot": -3.7e-07,
        "meta_mean_motion_ddot": 0,
        "tle_line1": "1 28874U 05038A   25353.11923096 -.00000037  00000+0  00000+0 0  9993",
        "tle_line2": "2 28874  55.0262 280.4441 0131443 293.6931 244.1239  2.00578076148220"
      },
      "geometry": {
        "type": "Point",
        "coordinates": [
          114.73725353830989,
          -19.52363632940406
        ]
      }
    }
  ]
}